{
  "type": "FeatureCollection",
  "features": [
    {
      "type": "Feature",
      "properties": {
        "norad_id": 36539,
        "name": "COSMOS 2251 DEB",
        "group": "cosmos-2251-debris",
        "lat": 61.12830653791768,
        "lon": 79.39734659345737,
        "alt_km": 700.507027599986,
        "timestamp": "2025-12-16T10:53:45.868468+00:00",
        "meta_object_name": "COSMOS 2251 DEB",
        "meta_object_id": "1993-036BCZ",
        "meta_epoch": "2025-12-15T21:25:58.116000",
        "meta_mean_motion": 14.59323994,
        "meta_eccentricity": 0.00270107,
        "meta_inclination": 74.0245,
        "meta_ra_of_asc_node": 49.1649,
        "meta_arg_of_pericenter": 193.836,
        "meta_mean_anomaly": 166.2068,
        "meta_ephemeris_type": 0,
        "meta_classification_type": "U",
        "meta_norad_cat_id": 36539,
        "meta_element_set_no": 999,
        "meta_rev_at_epoch": 83993,
        "meta_bstar": 0.00046878635,
        "meta_mean_motion_dot": 2.198e-05,
        "meta_mean_motion_ddot": 0,
        "tle_line1": "1 36539U 93036BCZ 25349.89303375  .00002198  00000+0  46879-3 0  9994",
        "tle_line2": "2 36539  74.0245  49.1649 0027010 193.8360 166.2068 14.59323994839933"
      },
      "geometry": {
        "type": "Point",
        "coordinates": [
          79.39734659345737,
          61.12830653791768
        ]
      }
    },
    {
      "type": "Feature",
      "properties": {
        "norad_id": 36540,
        "name": "COSMOS 2251 DEB",
        "group": "cosmos-2251-debris",
        "lat": 16.303966362079482,
        "lon": 178.25000534277885,
        "alt_km": 705.5938673150031,
        "timestamp": "2025-12-16T10:53:45.868479+00:00",
        "meta_object_name": "COSMOS 2251 DEB",
        "meta_object_id": "1993-036BDA",
        "meta_epoch": "2025-12-13T18:37:01.077024",
        "meta_mean_motion": 14.58495892,
        "meta_eccentricity": 0.00149508,
        "meta_inclination": 74.0294,
        "meta_ra_of_asc_node": 178.5434,
        "meta_arg_of_pericenter": 248.6284,
        "meta_mean_anomaly": 111.3286,
        "meta_ephemeris_type": 0,
        "meta_classification_type": "U",
        "meta_norad_cat_id": 36540,
        "meta_element_set_no": 999,
        "meta_rev_at_epoch": 86025,
        "meta_bstar": 0.0012951395,
        "meta_mean_motion_dot": 6e-05,
        "meta_mean_motion_ddot": 0,
        "tle_line1": "1 36540U 93036BDA 25347.77570691  .00006000  00000+0  12951-2 0  9997",
        "tle_line2": "2 36540  74.0294 178.5434 0014950 248.6284 111.3286 14.58495892860259"
      },
      "geometry": {
        "type": "Point",
        "coordinates": [
          178.25000534277885,
          16.303966362079482
        ]
      }
    },
    {
      "type": "Feature",
      "properties": {
        "norad_id": 36550,
        "name": "COSMOS 2251 DEB",
        "group": "cosmos-2251-debris",
        "lat": 21.032483559576153,
        "lon": -0.2915326381789103,
        "alt_km": 788.2522443689013,
        "timestamp": "2025-12-16T10:53:45.868489+00:00",
        "meta_object_name": "COSMOS 2251 DEB",
        "meta_object_id": "1993-036BDL",
        "meta_epoch": "2025-12-12T06:53:46.055040",
        "meta_mean_motion": 14.27197589,
        "meta_eccentricity": 0.00783785,
        "meta_inclination": 74.0439,
        "meta_ra_of_asc_node": 193.5589,
        "meta_arg_of_pericenter": 244.3101,
        "meta_mean_anomaly": 114.994,
        "meta_ephemeris_type": 0,
        "meta_classification_type": "U",
        "meta_norad_cat_id": 36550,
        "meta_element_set_no": 999,
        "meta_rev_at_epoch": 84589,
        "meta_bstar": 0.00090622054,
        "meta_mean_motion_dot": 2.261e-05,
        "meta_mean_motion_ddot": 0,
        "tle_line1": "1 36550U 93036BDL 25346.28733860  .00002261  00000+0  90622-3 0  9999",
        "tle_line2": "2 36550  74.0439 193.5589 0078378 244.3101 114.9940 14.27197589845891"
      },
      "geometry": {
        "type": "Point",
        "coordinates": [
          -0.2915326381789103,
          21.032483559576153
        ]
      }
    },
    {
      "type": "Feature",
      "properties": {
        "norad_id": 36551,
        "name": "COSMOS 2251 DEB",
        "group": "cosmos-2251-debris",
        "lat": 35.31514642436115,
        "lon": 175.23759558652876,
        "alt_km": 591.0107973908353,
        "timestamp": "2025-12-16T10:53:45.868499+00:00",
        "meta_object_name": "COSMOS 2251 DEB",
        "meta_object_id": "1993-036BDM",
        "meta_epoch": "2025-12-15T18:16:54.856128",
        "meta_mean_motion": 15.02667404,
        "meta_eccentricity": 0.00509963,
        "meta_inclination": 73.8871,
        "meta_ra_of_asc_node": 8.48,
        "meta_arg_of_pericenter": 317.1051,
        "meta_mean_anomaly": 42.6163,
        "meta_ephemeris_type": 0,
        "meta_classification_type": "U",
        "meta_norad_cat_id": 36551,
        "meta_element_set_no": 999,
        "meta_rev_at_epoch": 66977,
        "meta_bstar": 0.0007245537,
        "meta_mean_motion_dot": 9.911e-05,
        "meta_mean_motion_ddot": 0,
        "tle_line1": "1 36551U 93036BDM 25349.76174602  .00009911  00000+0  72455-3 0  9992",
        "tle_line2": "2 36551  73.8871   8.4800 0050996 317.1051  42.6163 15.02667404669775"
      },
      "geometry": {
        "type": "Point",
        "coordinates": [
          175.23759558652876,
          35.31514642436115
        ]
      }
    },
    {
      "type": "Feature",
      "properties": {
        "norad_id": 36557,
        "name": "COSMOS 2251 DEB",
        "group": "cosmos-2251-debris",
        "lat": 18.094493001099497,
        "lon": -66.45768398940413,
        "alt_km": 639.2008430958822,
        "timestamp": "2025-12-16T10:53:45.868509+00:00",
        "meta_object_name": "COSMOS 2251 DEB",
        "meta_object_id": "1993-036BDT",
        "meta_epoch": "2025-12-14T02:57:01.048320",
        "meta_mean_motion": 14.78340641,
        "meta_eccentricity": 0.0021568,
        "meta_inclination": 73.9788,
        "meta_ra_of_asc_node": 123.5235,
        "meta_arg_of_pericenter": 275.624,
        "meta_mean_anomaly": 84.2475,
        "meta_ephemeris_type": 0,
        "meta_classification_type": "U",
        "meta_norad_cat_id": 36557,
        "meta_element_set_no": 999,
        "meta_rev_at_epoch": 33917,
        "meta_bstar": 0.0036752981,
        "meta_mean_motion_dot": 0.00026914,
        "meta_mean_motion_ddot": 0,
        "tle_line1": "1 36557U 93036BDT 25348.12292880  .00026914  00000+0  36753-2 0  9998",
        "tle_line2": "2 36557  73.9788 123.5235 0021568 275.6240  84.2475 14.78340641339170"
      },
      "geometry": {
        "type": "Point",
        "coordinates": [
          -66.45768398940413,
          18.094493001099497
        ]
      }
    },
    {
      "type": "Feature",
      "properties": {
        "norad_id": 36558,
        "name": "COSMOS 2251 DEB",
        "group": "cosmos-2251-debris",
        "lat": 25.89219035672329,
        "lon": -40.47159755487192,
        "alt_km": 705.5973153353625,
        "timestamp": "2025-12-16T10:53:45.868519+00:00",
        "meta_object_name": "COSMOS 2251 DEB",
        "meta_object_id": "1993-036BDU",
        "meta_epoch": "2025-12-13T04:39:28.280448",
        "meta_mean_motion": 14.5536689,
        "meta_eccentricity": 0.00129076,
        "meta_inclination": 74.0417,
        "meta_ra_of_asc_node": 153.6824,
        "meta_arg_of_pericenter": 242.3004,
        "meta_mean_anomaly": 117.6851,
        "meta_ephemeris_type": 0,
        "meta_classification_type": "U",
        "meta_norad_cat_id": 36558,
        "meta_element_set_no": 999,
        "meta_rev_at_epoch": 85275,
        "meta_bstar": 0.0014840285,
        "meta_mean_motion_dot": 6.426e-05,
        "meta_mean_motion_ddot": 0,
        "tle_line1": "1 36558U 93036BDU 25347.19407732  .00006426  00000+0  14840-2 0  9998",
        "tle_line2": "2 36558  74.0417 153.6824 0012907 242.3004 117.6851 14.55366890852758"
      },
      "geometry": {
        "type": "Point",
        "coordinates": [
          -40.47159755487192,
          25.89219035672329
        ]
      }
    },
    {
      "type": "Feature",
      "properties": {
        "norad_id": 36559,
        "name": "COSMOS 2251 DEB",
        "group": "cosmos-2251-debris",
        "lat": -71.68663594744592,
        "lon": -117.29433741618757,
        "alt_km": 1047.7385823962622,
        "timestamp": "2025-12-16T10:53:45.868529+00:00",
        "meta_object_name": "COSMOS 2251 DEB",
        "meta_object_id": "1993-036BDV",
        "meta_epoch": "2025-12-15T00:57:10.497312",
        "meta_mean_motion": 13.95218337,
        "meta_eccentricity": 0.02603312,
        "meta_inclination": 74.1328,
        "meta_ra_of_asc_node": 5.8808,
        "meta_arg_of_pericenter": 37.9939,
        "meta_mean_anomaly": 323.924,
        "meta_ephemeris_type": 0,
        "meta_classification_type": "U",
        "meta_norad_cat_id": 36559,
        "meta_element_set_no": 999,
        "meta_rev_at_epoch": 81126,
        "meta_bstar": 0.0020604981,
        "meta_mean_motion_dot": 3.675e-05,
        "meta_mean_motion_ddot": 0,
        "tle_line1": "1 36559U 93036BDV 25349.03970483  .00003675  00000+0  20605-2 0  9991",
        "tle_line2": "2 36559  74.1328   5.8808 0260331  37.9939 323.9240 13.95218337811262"
      },
      "geometry": {
        "type": "Point",
        "coordinates": [
          -117.29433741618757,
          -71.68663594744592
        ]
      }
    }
  ]
}